Company Name,Subindustry,Sub Subindustry,Address,Phone,Website,Borough,Postcode,Latitude,Longitude,Community Board,Community Council ,Census Tract,BIN,BBL,NTA,Location 1
Europa Cafe,Caf√© / Deli,,3 Times Sq,212-239-0160,www.euorpacafe.com,1,10036,40.756376,-73.986713,5,3,119,1024686,1010140033,Midtown-Midtown South                                                      ,"3 Times Sq
(40.756376, -73.986713)"
Ranch 1,Quick Serve,Fast Food,832 Eighth Ave,2129561111,,1,10019,40.762444,-73.985983,5,3,131,1024809,1010220002,Midtown-Midtown South                                                      ,"832 Eighth Ave
(40.762444, -73.985983)"
Sosa Borella,Full Serve,Argentinian,832 Eighth Ave,(212) 262-8282,http://www.sosaborella.com/,1,10019,40.762444,-73.985983,5,3,131,1024809,1010220002,Midtown-Midtown South                                                      ,"832 Eighth Ave
(40.762444, -73.985983)"
Mi Nidito (Cantina Mexicana),Full Serve,Mexican,852 Eighth Ave,(212) 265-0022,,1,10019,40.763128,-73.985481,5,3,131,1081646,1010230002,Midtown-Midtown South                                                      ,"852 Eighth Ave
(40.763128, -73.985481)"
Starbucks,Coffee,,"871-879 Eighth Ave, Suite# 871",2122467699,www.starbucks.com,1,10019,40.763644,-73.985134,4,3,133,1025257,1010437501,Clinton                                                                    ,"871-879 Eighth Ave, Suite# 871
(40.763644, -73.985134)"
China Gourmet,Full Serve,Chinese,877 Eighth Ave,(212) 246-8181,,1,10019,40.763789,-73.985026,4,3,133,1025257,1010437501,Clinton                                                                    ,"877 Eighth Ave
(40.763789, -73.985026)"
Rino Trattoria,Full Serve,Italian,877 Eighth Ave,(212) 307-0666,www.rinotrattoria.com,1,10019,40.763789,-73.985026,4,3,133,1025257,1010437501,Clinton                                                                    ,"877 Eighth Ave
(40.763789, -73.985026)"
Laxmi Corp. Newsstand,Caf√© / Deli,,879 Eighth Ave,,,1,10019,40.763839,-73.98499,4,3,133,1025257,1010437501,Clinton                                                                    ,"879 Eighth Ave
(40.763839, -73.98499)"
Caffe Cielo,Full Serve,Italian,881 Eighth Ave,212 246-9555,,1,10019,40.763885,-73.984954,4,3,133,1025323,1010437502,Clinton                                                                    ,"881 Eighth Ave
(40.763885, -73.984954)"
Cosmic Diner,Full Serve,Diner,888 Eighth Ave,212 333-5888,,1,10019,40.764072,-73.984791,5,3,131,1024825,1010240001,Midtown-Midtown South                                                      ,"888 Eighth Ave
(40.764072, -73.984791)"
Brasserie Athena,Full Serve,French,300 W 46th St,(212) 399-1100,,1,10036,40.759963,-73.988355,4,3,121,1081654,1010360036,Clinton                                                                    ,"300 W 46th St
(40.759963, -73.988355)"
The House of Brews,Full Serve,American,302 W 51st St,,http://www.houseofbrewsny.com/,1,10019,40.763037,-73.985958,4,3,133,1025175,1010410037,Clinton                                                                    ,"302 W 51st St
(40.763037, -73.985958)"
Seasons,Full Serve,American,888 Eighth Ave,(212) 586-2257,,1,10019,40.764072,-73.984791,5,3,131,1024825,1010240001,Midtown-Midtown South                                                      ,"888 Eighth Ave
(40.764072, -73.984791)"
World of Nuts and Ice Cream,Quick Serve,Dessert,888 Eighth Ave,(212) 245-0398,www.worldofnutsandicecream.com,1,10019,40.764072,-73.984791,5,3,131,1024825,1010240001,Midtown-Midtown South                                                      ,"888 Eighth Ave
(40.764072, -73.984791)"
Green Emporium,Caf√© / Deli,,791 Eighth Ave,2124591924,,1,10019,40.761133,-73.986958,4,3,127,1025141,1010390029,Clinton                                                                    ,"791 Eighth Ave
(40.761133, -73.986958)"
Rosie O'Grady's Saloon,Full Serve,American,800 Seventh Ave,212-582-2975,,1,10019,40.762441,-73.982294,5,4,131,1024827,1010240029,Midtown-Midtown South                                                      ,"800 Seventh Ave
(40.762441, -73.982294)"
"810 Deli, Inc",Caf√© / Deli,,810 Seventh Ave,2125414136,www.810deli.com,1,10019,40.762639,-73.982146,5,4,131,1024828,1010240038,Midtown-Midtown South                                                      ,"810 Seventh Ave
(40.762639, -73.982146)"
Deli / Caf√©,Caf√© / Deli,,810 Seventh Ave,(212) 541-4136,http://www.810deli.com/,1,10019,40.762639,-73.982146,5,4,131,1024828,1010240038,Midtown-Midtown South                                                      ,"810 Seventh Ave
(40.762639, -73.982146)"
Ichi Masa Japanese Sushi,Full Serve,Japanese,825 Eighth Ave,(212) 315-4800,http://ichimasany.com/,1,10019,40.762074,-73.986275,4,3,127,1076203,1010400029,Clinton                                                                    ,"825 Eighth Ave
(40.762074, -73.986275)"
Starbucks,Coffee,,825 Eighth Ave,2124622020,www.starbucks.com,1,10019,40.762074,-73.986275,4,3,127,1076203,1010400029,Clinton                                                                    ,"825 Eighth Ave
(40.762074, -73.986275)"
Starbucks,Coffee,,156 W 52nd St,(212) 581-6410,,1,10019,40.762027,-73.981622,5,4,131,1023157,1010040020,Midtown-Midtown South                                                      ,"156 W 52nd St
(40.762027, -73.981622)"
The Library @ Paramount Hotel,Full Serve,American,235 W 46th St,212 827-4183,www.paramountNewYork.solmelia.com,1,10036,40.759132,-73.986348,5,3,125,1024737,1010180006,Midtown-Midtown South                                                      ,"235 W 46th St
(40.759132, -73.986348)"
46 Bar (Paramount Hotel),Bar / Lounge,,235 W 46th St,(212) 764-5500,http://www.nycparamount.com/,1,10036,40.759132,-73.986348,5,3,125,1024737,1010180006,Midtown-Midtown South                                                      ,"235 W 46th St
(40.759132, -73.986348)"
Victor's Cafe,Caf√© / Deli,,236 W 52nd St,(212) 586-7714 ,www.victorscafe.com,1,10019,40.762968,-73.983853,5,3,131,1080858,1010230051,Midtown-Midtown South                                                      ,"236 W 52nd St
(40.762968, -73.983853)"
Auntie Anne's,Quick Serve,Fast Food,664 Eighth Ave,2127641542,www.auntieannes.com,1,10036,40.757436,-73.989633,5,3,119,1087142,1010140001,Midtown-Midtown South                                                      ,"664 Eighth Ave
(40.757436, -73.989633)"
B.B. King Blues Club & Grill,Full Serve,American,237 W 42nd St,2129974144,www.bbkingblues.com,1,10036,40.756785,-73.988702,5,3,119,1087142,1010140001,Midtown-Midtown South                                                      ,"237 W 42nd St
(40.756785, -73.988702)"
Cold Stone Creamery/ Tim Horton's,Quick Serve,Dessert,243 W 42nd St,2123981882,www.coldstonecreamery.com,1,10036,40.756821,-73.988789,5,3,119,1087142,1010140001,Midtown-Midtown South                                                      ,"243 W 42nd St
(40.756821, -73.988789)"
Dallas BBQ,Full Serve,Barbecue,27 West 72nd Street,2128732004,,1,10023,40.776988,-73.977766,7,6,157,1087511,1011257502,Lincoln Square                                                             ,"27 West 72nd Street
(40.776988, -73.977766)"
Starbucks,Coffee,,251 W 42nd St,2123981982,www.starbucks.com,1,10036,40.756867,-73.988901,5,3,119,1087142,1010140001,Midtown-Midtown South                                                      ,"251 W 42nd St
(40.756867, -73.988901)"
Pongsri Thai Restaurant,Full Serve,Thai,244 W 48th St,2125823392,,1,10036,40.76052,-73.985817,5,3,125,1024765,1010190059,Midtown-Midtown South                                                      ,"244 W 48th St
(40.76052, -73.985817)"
Smokehouse,Full Serve,Italian,249 W 48th St,,www.baldoriamo.com,1,10036,40.76057,-73.98589,5,3,125,,,Midtown-Midtown South                                                      ,"249 W 48th St
(40.76057, -73.98589)"
Lucky Star Cafe,Full Serve,American,250 W 43rd St,(201) 838-9269,,1,10036,40.757309,-73.987901,5,3,119,1085096,1010140055,Midtown-Midtown South                                                      ,"250 W 43rd St
(40.757309, -73.987901)"
Shula's Steakhouse,Full Serve,Steakhouse,250 W 43rd St,2122012776,http://www.donshula.com,1,10036,40.757309,-73.987901,5,3,119,1085096,1010140055,Midtown-Midtown South                                                      ,"250 W 43rd St
(40.757309, -73.987901)"
Scarlatto,Full Serve,Italian,250 W 47th St,212 730-4535,scarlattonyc.com,1,10036,40.759892,-73.986276,5,3,125,1024744,1010180054,Midtown-Midtown South                                                      ,"250 W 47th St
(40.759892, -73.986276)"
Toloache,Full Serve,Mexican,251 W 50th St,(212) 581-1818 ,www.toloachenyc.com,1,10019,40.761851,-73.985041,5,3,131,1024814,1010220101,Midtown-Midtown South                                                      ,"251 W 50th St
(40.761851, -73.985041)"
Bluechili,Full Serve,Pan Asian,251 W 51st St,(212) 246-3330,www.bluechilinyc.com,1,10019,40.762477,-73.984586,5,3,131,1024815,1010230005,Midtown-Midtown South                                                      ,"251 W 51st St
(40.762477, -73.984586)"
Pergola des Artistes,Full Serve,French,252 W 46th St,2123027500,pergoladesartistes.com,1,10036,40.759261,-73.986695,5,3,119,1024729,1010170057,Midtown-Midtown South                                                      ,"252 W 46th St
(40.759261, -73.986695)"
Trattoria Trecolori,Full Serve,Italian,254 W 47th St,(212) 997-4540,,1,10036,40.759919,-73.986348,5,3,125,1024746,1010180056,Midtown-Midtown South                                                      ,"254 W 47th St
(40.759919, -73.986348)"
Russian Samovar Restaurant,Full Serve,Russian,256 W 52nd St,(212) 757-0168,,1,10019,40.763111,-73.984192,5,3,131,1024821,1010230059,Midtown-Midtown South                                                      ,"256 W 52nd St
(40.763111, -73.984192)"
John's Pizzeria,Full Serve,Pizza,260 W 44th St,(212) 391-7560,www.johnpizzerianyc.com,1,10036,40.758124,-73.987897,5,3,119,1024710,1010150059,Midtown-Midtown South                                                      ,"260 W 44th St
(40.758124, -73.987897)"
Just Pies Inc,Quick Serve,Dessert,260 W 44th St,2127217001,,1,10036,40.758124,-73.987897,5,3,119,1024710,1010150059,Midtown-Midtown South                                                      ,"260 W 44th St
(40.758124, -73.987897)"
Sunrise Deli,Caf√© / Deli,,1441 Broadway,2122216490,,1,10018,40.754707,-73.986753,5,3,113,1022569,1009930055,Midtown-Midtown South                                                      ,"1441 Broadway
(40.754707, -73.986753)"
Restaurant Charlotte @ Millennium Broadway Hotel,Full Serve,American,145 W 44th St,212 789-7508,millenniumbroadway.com,1,10036,40.756667,-73.984396,5,4,119,1085016,1009970010,Midtown-Midtown South                                                      ,"145 W 44th St
(40.756667, -73.984396)"
O'Lunney's Times Square Pub,Full Serve,American,145 W 45th St,212 840-6688,www.olunneys.com,1,10036,40.757336,-73.984017,5,4,119,1022634,1009980012,Midtown-Midtown South                                                      ,"145 W 45th St
(40.757336, -73.984017)"
Vacant (Juan Valdez Coffee),Coffee,,1451 Broadway,212 871-7515,,1,10036,40.755152,-73.986613,5,3,113,1086069,1009940001,Midtown-Midtown South                                                      ,"1451 Broadway
(40.755152, -73.986613)"
Abondanza,Caf√© / Deli,,146 W 46th St,(212) 938-1333,,1,10036,40.757948,-73.983598,5,4,119,1022650,1009980054,Midtown-Midtown South                                                      ,"146 W 46th St
(40.757948, -73.983598)"
Dervish Turkish Restaurant,Full Serve,Turkish,146 W 47th St,212 997-0070,www.dervishrestaurant.com,1,10036,40.758579,-73.98315,5,4,125,1022670,1009990053,Midtown-Midtown South                                                      ,"146 W 47th St
(40.758579, -73.98315)"
"Godiva Chocolatier, Inc.",Quick Serve,Dessert,1460 Broadway,(212) 840-6758,www.godiva.com,1,10036,40.754998,-73.986284,5,4,113,1022573,1009947504,Midtown-Midtown South                                                      ,"1460 Broadway
(40.754998, -73.986284)"
Ranch 1,Quick Serve,Fast Food,141 W 41st St,,http://www.ranch1.com/,1,10036,40.754756,-73.985956,5,4,113,1022574,1009940016,Midtown-Midtown South                                                      ,"141 W 41st St
(40.754756, -73.985956)"
Scotts Food Court,Quick Serve,American,141 W 41st St,2127681111,,1,10036,40.754756,-73.985956,5,4,113,1022574,1009940016,Midtown-Midtown South                                                      ,"141 W 41st St
(40.754756, -73.985956)"
Tony's Di Napoli,Full Serve,Italian,147 W 43rd Str,(212) 221-0100,www.tonysnyc.com,1,10036,40.756022,-73.984808,5,4,119,1022611,1009960009,Midtown-Midtown South                                                      ,"147 W 43rd Str
(40.756022, -73.984808)"
Bombay Masala Indian Restaurant,Full Serve,Indian,148 W 49th St,(212) 302-8150,www.bombaymasalany.com,1,10019,40.759847,-73.982294,5,4,125,1022698,1010010157,Midtown-Midtown South                                                      ,"148 W 49th St
(40.759847, -73.982294)"
Vacant (former Caf√© Groppi),Caf√© / Deli,,148 W 49th St,(212) 221-0082,,1,10019,40.759847,-73.982294,5,4,125,1022698,1010010157,Midtown-Midtown South                                                      ,"148 W 49th St
(40.759847, -73.982294)"
Ruth's Chris Steak House,Full Serve,Steakhouse,148 W 51st St,212 245-9600,,1,10020,40.761357,-73.981969,5,4,131,1022710,1010037501,Midtown-Midtown South                                                      ,"148 W 51st St
(40.761357, -73.981969)"
Rosie O'Grady's Steakhouse,Full Serve,Steakhouse,149 W 46th St,212 869-0600,www.rosieogradystimessquare.com,1,10036,40.757981,-73.983627,5,4,125,1022664,1009990011,Midtown-Midtown South                                                      ,"149 W 46th St
(40.757981, -73.983627)"
Le Marais,Full Serve,French,150 W 46th St,(212) 869-0900,www.lemarais.net,1,10036,40.757984,-73.983677,5,4,119,1022651,1009980055,Midtown-Midtown South                                                      ,"150 W 46th St
(40.757984, -73.983677)"
Langan's Bar & Restaurant,Full Serve,American,150 W 47th St,(212) 869-5482,www.langans.com,1,10036,40.758612,-73.983233,5,4,125,1022671,1009990054,Midtown-Midtown South                                                      ,"150 W 47th St
(40.758612, -73.983233)"
Y & H Grocery,Caf√© / Deli,,150 W 47th St,(212) 840-1659,,1,10036,40.758612,-73.983233,5,4,125,1022671,1009990054,Midtown-Midtown South                                                      ,"150 W 47th St
(40.758612, -73.983233)"
Bella Napoli,Full Serve,Italian,150 W 49th St,(212) 719-2819,,1,10019,40.759867,-73.982334,5,4,125,1022695,1010010058,Midtown-Midtown South                                                      ,"150 W 49th St
(40.759867, -73.982334)"
Osteria Al Doge,Full Serve,Italian,142 W 44th St,(212) 944-3643,www.osteria_doge.com,1,10036,40.756634,-73.984367,5,4,119,1022620,1009960051,Midtown-Midtown South                                                      ,"142 W 44th St
(40.756634, -73.984367)"
St. Andrews Restaurant and Bar,Bar / Lounge,,142 W 46th St,(212) 840-8413,www.standrewsnyc.com,1,10036,40.757915,-73.983519,5,4,119,1022659,1009980152,Midtown-Midtown South                                                      ,"142 W 46th St
(40.757915, -73.983519)"
Pasta Lovers Trattoria,Full Serve,Italian,142 W 49th St,212 819-1155,www.pastaloversnyc.com,1,10019,40.759798,-73.982172,5,4,125,1022694,1010010055,Midtown-Midtown South                                                      ,"142 W 49th St
(40.759798, -73.982172)"
John's Shanghai,Full Serve,Chinese,144 W 46th St,(212) 869-9183,,1,10036,40.757932,-73.983558,5,4,119,1022649,1009980053,Midtown-Midtown South                                                      ,"144 W 46th St
(40.757932, -73.983558)"
Starbucks,Coffee,,1460 Broadway,2122217515,www.starbucks.com,1,10036,40.754998,-73.986284,5,4,113,1022573,1009947504,Midtown-Midtown South                                                      ,"1460 Broadway
(40.754998, -73.986284)"
Virgils Real Barbecue,Full Serve,Barbecue,152 W 44th St,(212) 921-9494,www.virgilsbbq.com,1,10036,40.756716,-73.984558,5,4,119,1022621,1009960054,Midtown-Midtown South                                                      ,"152 W 44th St
(40.756716, -73.984558)"
Iroha,Full Serve,Japanese,152 W 49th St,212 398-9049,,1,10019,40.759883,-73.982374,5,4,125,1022696,1010010059,Midtown-Midtown South                                                      ,"152 W 49th St
(40.759883, -73.982374)"
Sapporo,Full Serve,Japanese,152 W 49th St,212 869-8972,,1,10019,40.759883,-73.982374,5,4,125,1022696,1010010059,Midtown-Midtown South                                                      ,"152 W 49th St
(40.759883, -73.982374)"
Europa Cafe,Caf√© / Deli,,152 W 51st St,(212) 581-0152,www.euorpacafe.com,1,10019,40.761439,-73.982168,5,4,131,1022710,1010037501,Midtown-Midtown South                                                      ,"152 W 51st St
(40.761439, -73.982168)"
Bar Americain,Full Serve,American,152 W 52nd St,(212) 265-9700,www.baramerican.com,1,10019,40.762005,-73.981568,5,4,131,1023157,1010040020,Midtown-Midtown South                                                      ,"152 W 52nd St
(40.762005, -73.981568)"
Ruby's Diner,Full Serve,Diner,234 W 42nd St,,www.rubys.com,1,10036,40.756747,-73.988659,5,3,113,1024665,1010130012,Midtown-Midtown South                                                      ,"234 W 42nd St
(40.756747, -73.988659)"
Virtigo Cafe Llc,Caf√© / Deli,,234 W 42nd St,2122219454,,1,10036,40.756747,-73.988659,5,3,113,1024665,1010130012,Midtown-Midtown South                                                      ,"234 W 42nd St
(40.756747, -73.988659)"
Aoki,Full Serve,Japanese,234 W 48th St,(212) 956-2355 ,aokinyc.com,1,10036,40.760454,-73.985655,5,3,125,1024764,1010190055,Midtown-Midtown South                                                      ,"234 W 48th St
(40.760454, -73.985655)"
Saigon 48,Full Serve,Vietnamese,234 W 48th St,(212) 247-8669,,1,10036,40.760454,-73.985655,5,3,125,1024764,1010190055,Midtown-Midtown South                                                      ,"234 W 48th St
(40.760454, -73.985655)"
Inakaya,Full Serve,Japanese,620 Eighth Ave,(212) 354-2130,,1,10018,40.756039,-73.990651,5,3,113,1087186,1010127501,Midtown-Midtown South                                                      ,"620 Eighth Ave
(40.756039, -73.990651)"
Schnipper's Quality Kitchen,Full Serve,American,620 Eighth Ave,(212) 921-2400,http://www.schnippers.com/,1,10018,40.756039,-73.990651,5,3,113,1087186,1010127501,Midtown-Midtown South                                                      ,"620 Eighth Ave
(40.756039, -73.990651)"
McDonald's,Quick Serve,Fast Food,1651 Broadway,2125865530,,1,10019,40.762164,-73.983575,5,3,131,1024817,1010230018,Midtown-Midtown South                                                      ,"1651 Broadway
(40.762164, -73.983575)"
Starbucks,Coffee,,1530 Broadway,(212) 391-2079,www.starbucks.com,1,10036,40.757674,-73.985121,5,4,119,1022624,1009970001,Midtown-Midtown South                                                      ,"1530 Broadway
(40.757674, -73.985121)"
Sardi's Restaurant,Full Serve,American,234-236 W 44th St,(212) 221-8440,www.sardis.com,1,10036,40.757921,-73.987421,5,3,119,1024707,1010150049,Midtown-Midtown South                                                      ,"234-236 W 44th St
(40.757921, -73.987421)"
Dean & Deluca,Caf√© / Deli,,560 Broadway,(212) 869-6890,www.deandeluca.com,1,10012,40.723909,-73.998048,2,1,43,1007567,1004970018,SoHo-TriBeCa-Civic Center-Little Italy                                     ,"560 Broadway
(40.723909, -73.998048)"
Library Bar,Full Serve,American,235 W 46th St,(212) 827-4183,,1,10036,40.759132,-73.986348,5,3,125,1024737,1010180006,Midtown-Midtown South                                                      ,"235 W 46th St
(40.759132, -73.986348)"
La Rivista Ristorante,Full Serve,Italian,313 W 46th St,212-245-1707,www.larivistanyc.com,1,10036,40.760082,-73.98859,4,3,127,1025051,1010370025,Clinton                                                                    ,"313 W 46th St
(40.760082, -73.98859)"
Broadway Joe Steakhouse,Full Serve,Steakhouse,315 W 46th St,(212) 246-6513,broadwayjoesteakhouse.com,1,10036,40.760098,-73.988629,4,3,127,1075688,1010370024,Clinton                                                                    ,"315 W 46th St
(40.760098, -73.988629)"
Bistecca Fiorentina,Full Serve,Steakhouse,317 W 46th St,(212) 258-3232,www.bisteccafiorentinanyc.com,1,10036,40.760114,-73.988669,4,3,127,1078871,1010370023,Clinton                                                                    ,"317 W 46th St
(40.760114, -73.988669)"
Gourmet New York,Caf√© / Deli,,680 Eighth Ave,,,1,10036,40.757998,-73.989218,5,3,119,1024703,1010150001,Midtown-Midtown South                                                      ,"680 Eighth Ave
(40.757998, -73.989218)"
Port Gourmet Deli,Caf√© / Deli,,681 Eighth Ave,(212) 245-3168,,1,10036,40.758007,-73.98924,4,3,121,1024967,1010340029,Clinton                                                                    ,"681 Eighth Ave
(40.758007, -73.98924)"
McDonald's,Quick Serve,Fast Food,220 W 42nd St,2122217664,www.mcdonalds.com,1,10036,40.756412,-73.987858,5,3,113,1024663,1010130042,Midtown-Midtown South                                                      ,"220 W 42nd St
(40.756412, -73.987858)"
McDonald's,Quick Serve,Fast Food,688 Eighth Ave,2122213941,,1,10036,40.758218,-73.989059,5,3,119,1024704,1010150004,Midtown-Midtown South                                                      ,"688 Eighth Ave
(40.758218, -73.989059)"
Robert Emmett's Bar & Restaurant,Full Serve,American,694 Eighth Ave,(212) 302-9999,www.robertemmetts.com,1,10036,40.758383,-73.98894,5,3,119,1078853,1010150061,Midtown-Midtown South                                                      ,"694 Eighth Ave
(40.758383, -73.98894)"
"1657 Broadway Deli, Ltd.",Caf√© / Deli,,1651-1665 Broadway,2129560099,,1,10019,40.762164,-73.983575,5,3,131,1024817,1010230018,Midtown-Midtown South                                                      ,"1651-1665 Broadway
(40.762164, -73.983575)"
Hard Rock Cafe,Full Serve,American,1501 Broadway,2123433355,www.hardrockcafe.com,1,10036,40.757103,-73.986193,5,3,119,1024706,1010150029,Midtown-Midtown South                                                      ,"1501 Broadway
(40.757103, -73.986193)"
Planet Hollywood,Full Serve,American,1540 Broadway,(212) 333-7827,www.planethollywoodintl.com,1,10036,40.757847,-73.985009,5,4,119,1076844,1009987501,Midtown-Midtown South                                                      ,"1540 Broadway
(40.757847, -73.985009)"
B. Smith's Restaurant Row,Full Serve,American,320 W 46th St,(212) 315-1100,www.bsmith.com,1,10036,40.760136,-73.988759,4,3,121,1025014,1010360041,Clinton                                                                    ,"320 W 46th St
(40.760136, -73.988759)"
Orso,Full Serve,Italian,322 W 46th St,212-489-7212,www.orsorestaurant.com,1,10036,40.760153,-73.988803,4,3,121,1025032,1010360142,Clinton                                                                    ,"322 W 46th St
(40.760153, -73.988803)"
Joe Allen,Full Serve,American,326 W 46th St,(212) 581-6464,www.joeallenrestaurant.com,1,10036,40.760186,-73.988882,4,3,121,1025016,1010360044,Clinton                                                                    ,"326 W 46th St
(40.760186, -73.988882)"
O'Flaherty's Ale House & Restaurant,Full Serve,American,334 W 46th St,(212) 581-9366,www.oflahertynyc.com,1,10036,40.760254,-73.989045,4,3,121,1025018,1010360047,Clinton                                                                    ,"334 W 46th St
(40.760254, -73.989045)"
Sangria 46,Full Serve,Spanish,338 W 46th St,212-581-8482,www.sangria46.com,1,10036,40.76029,-73.989124,4,3,121,1082452,1010360149,Clinton                                                                    ,"338 W 46th St
(40.76029, -73.989124)"
Le Rivage,Full Serve,French,340 W 46th St,(212) 765-7374,www.lerivagenyc.com,1,10036,40.760307,-73.989167,4,3,121,1025020,1010360049,Clinton                                                                    ,"340 W 46th St
(40.760307, -73.989167)"
Da Rosina Ristorante Italiano,Full Serve,Italian,342 W 46th St,(212) 977-7373,www.darosina.com,1,10036,40.760323,-73.989207,4,3,121,1025021,1010360050,Clinton                                                                    ,"342 W 46th St
(40.760323, -73.989207)"
EZ Deil and NY Nail Land,Caf√© / Deli,,1625 Broadway,(212) 333-5650,,1,10019,40.761223,-73.984207,5,3,125,1024801,1010210043,Midtown-Midtown South                                                      ,"1625 Broadway
(40.761223, -73.984207)"
Dunkin' Donuts,Coffee,,210 W 50th St,(212) 757-4617,,1,10019,40.76156,-73.984395,5,3,125,1024802,1010210045,Midtown-Midtown South                                                      ,"210 W 50th St
(40.76156, -73.984395)"
Famous Famiglia Pizzeria,Quick Serve,Pizza,1630 Broadway,(212) 333-4646,www.famousfamiglia.com,1,10019,40.761327,-73.984106,5,4,125,1024799,1010210037,Midtown-Midtown South                                                      ,"1630 Broadway
(40.761327, -73.984106)"
Italia Mia Pizza,Full Serve,Pizza,1674 Broadway,(212) 265-1414,,1,10019,40.762861,-73.983109,5,4,131,1024831,1010240131,Midtown-Midtown South                                                      ,"1674 Broadway
(40.762861, -73.983109)"
Club House Caf√©,Full Serve,Spanish,155 W 46th St,(212) 354-3838,,1,10036,40.758031,-73.983746,5,4,125,1022662,1009990008,Midtown-Midtown South                                                      ,"155 W 46th St
(40.758031, -73.983746)"
Restaurant,Full Serve,American,155 W 46th St,2128690900,www.lemarais.net,1,10036,40.758031,-73.983746,5,4,125,1022662,1009990008,Midtown-Midtown South                                                      ,"155 W 46th St
(40.758031, -73.983746)"
TGI Friday's,Full Serve,American,1552 Broadway,2129447352,www.fridays.com,1,10036,40.758665,-73.984977,5,4,125,1022660,1009990001,Midtown-Midtown South                                                      ,"1552 Broadway
(40.758665, -73.984977)"
Meson Sevilla Ristorante,Full Serve,Spanish,344 W 46th St,(212) 262-5890,mesonsevilla.com,1,10036,40.760342,-73.989247,4,3,121,1025022,1010360051,Clinton                                                                    ,"344 W 46th St
(40.760342, -73.989247)"
Danny's Grand Sea Palace,Full Serve,Seafood,346 W 46th St,(212) 265-8130,,1,10036,40.760359,-73.989286,4,3,121,1080885,1010360052,Clinton                                                                    ,"346 W 46th St
(40.760359, -73.989286)"
Sushi of Gari,Full Serve,Japanese,347 W 46th St,(212) 957-0046,www.sushiofgari.com,1,10036,40.760373,-73.989276,4,3,127,1025048,1010370012,Clinton                                                                    ,"347 W 46th St
(40.760373, -73.989276)"
Swing 46 Jazz and Supper Club,Full Serve,American,349 W 46th St,(212) 262-9554,www.swing46.com,1,10036,40.760392,-73.989315,4,3,127,1025047,1010370010,Clinton                                                                    ,"349 W 46th St
(40.760392, -73.989315)"
Bourbon Street Bar & Grille,Full Serve,Cajun,346 W 46th St,(212) 245-2030,www.bourbonny.com,1,10036,40.760359,-73.989286,4,3,121,1080885,1010360052,Clinton                                                                    ,"346 W 46th St
(40.760359, -73.989286)"
Ocha Sushi,Full Serve,Japanese,350 W 46th St,2125813198,,1,10036,40.760395,-73.989369,4,3,121,1025023,1010360053,Clinton                                                                    ,"350 W 46th St
(40.760395, -73.989369)"
Becco,Full Serve,Italian,355 W 46th St,(212) 397-7597,www.becconyc.com,1,10036,40.760441,-73.989438,4,3,127,1025046,1010370009,Clinton                                                                    ,"355 W 46th St
(40.760441, -73.989438)"
Capri Ristorante - CLOSED,Full Serve,Italian,358 W 46th St,212 582-5850,http://www.capri46.com,1,10036,40.760463,-73.989528,4,3,121,1025025,1010360057,Clinton                                                                    ,"358 W 46th St
(40.760463, -73.989528)"
Paramount Cafe,Caf√© / Deli,,"1501 Broadway, Suite# 2009",2123916675,,1,10036,40.757103,-73.986193,5,3,119,1024706,1010150029,Midtown-Midtown South                                                      ,"1501 Broadway, Suite# 2009
(40.757103, -73.986193)"
Viva Pancho,Full Serve,Mexican,156 W 44th St,(212) 944-9747,,1,10036,40.756746,-73.984634,5,4,119,1022622,1009960056,Midtown-Midtown South                                                      ,"156 W 44th St
(40.756746, -73.984634)"
Lattanzi Restaurant,Full Serve,Italian,359 W 46th St,(212) 315-0980,www.lattanzinyc.com,1,10036,40.760477,-73.989521,4,3,127,1025044,1010370007,Clinton                                                                    ,"359 W 46th St
(40.760477, -73.989521)"
"Aramark Services, Inc.",Catering,,230 W 41st St,,,1,10036,40.755802,-73.988482,5,3,113,1080830,1010120015,Midtown-Midtown South                                                      ,"230 W 41st St
(40.755802, -73.988482)"
City Chow,Caf√© / Deli,,1633 Broadway,(212) 445-0600,www.blueradishgroup.com,1,10019,40.761574,-73.983962,5,3,131,1024812,1010220043,Midtown-Midtown South                                                      ,"1633 Broadway
(40.761574, -73.983962)"
Cosi,Caf√© / Deli,,1633 Broadway,2123972674,www.cosiny.com,1,10019,40.761574,-73.983962,5,3,131,1024812,1010220043,Midtown-Midtown South                                                      ,"1633 Broadway
(40.761574, -73.983962)"
Mars 2112,Full Serve,American,"1633 Broadway, Suite# B",2125822112,www.mars2112.com,1,10019,40.761574,-73.983962,5,3,131,1024812,1010220043,Midtown-Midtown South                                                      ,"1633 Broadway, Suite# B
(40.761574, -73.983962)"
Bangkok House,Full Serve,Thai,360 W 46th St,(212) 541-5943,www.bangkokhouseny.com,1,10036,40.76048,-73.989571,4,3,121,1025033,1010360157,Clinton                                                                    ,"360 W 46th St
(40.76048, -73.989571)"
The House of Brews,Full Serve,American,363 W 46th St,(212) 245-0551,www.HouseOfBrews.com,1,10036,40.76051,-73.9896,4,3,127,1025043,1010370006,Clinton                                                                    ,"363 W 46th St
(40.76051, -73.9896)"
Tramonti,Full Serve,Italian,364 W 46th St,(212) 974-7464,,1,10036,40.760513,-73.989651,4,3,121,1025027,1010360059,Clinton                                                                    ,"364 W 46th St
(40.760513, -73.989651)"
Firebird Restaurant,Full Serve,Russian,365 W. 46th Street,(212) 586-0244,firebirdrestaurant.com,1,10036,40.760529,-73.98964,4,3,127,1025080,1010370105,Clinton                                                                    ,"365 W. 46th Street
(40.760529, -73.98964)"
Joshua Tree - CLOSED,Full Serve,American,368 W 46th St,(212) 489-1920,http://www.joshuatreebarnyc.com/,1,10036,40.760548,-73.989734,4,3,121,1025028,1010360060,Clinton                                                                    ,"368 W 46th St
(40.760548, -73.989734)"
McDonald's,Quick Serve,Fast Food,"1560 Broadway, Suite# 1651",2129218900,www.mcdonalds.com,1,10036,40.75886,-73.984843,5,4,125,1022661,1009990003,Midtown-Midtown South                                                      ,"1560 Broadway, Suite# 1651
(40.75886, -73.984843)"
Ritz Bar & Lounge,Bar / Lounge,,369 W 46th St,(212) 977-3884,,1,10036,40.760562,-73.989723,4,3,127,1025079,1010370103,Clinton                                                                    ,"369 W 46th St
(40.760562, -73.989723)"
Deacon Brodie's Tavern,Bar / Lounge,,370 W 46th St,(212) 262-1452,,1,10036,40.760565,-73.989774,4,3,121,1025035,1010360161,Clinton                                                                    ,"370 W 46th St
(40.760565, -73.989774)"
Pomaire,Full Serve,Chilean,371 W 46th St,(212) 956-3055,www.pomairenyc.com,1,10036,40.760578,-73.989763,4,3,127,1025078,1010370102,Clinton                                                                    ,"371 W 46th St
(40.760578, -73.989763)"
Red Lobster,Full Serve,Seafood,5 Times Sq,2127306706,www.redlobster.com,1,10036,40.755709,-73.987208,5,3,113,1024656,1010130029,Midtown-Midtown South                                                      ,"5 Times Sq
(40.755709, -73.987208)"
Pig 'N' Whistle,Full Serve,American,"165 W 47th St
store front",(212) 302-0112,www.pignwhistlets.com,1,10036,40.758744,-73.983504,5,4,125,1083718,1010000001,Midtown-Midtown South                                                      ,"165 W 47th St store front
(40.758744, -73.983504)"
Roxy Deli,Caf√© / Deli,,1565 Broadway,212-921-3333,www.roxydeli.com,1,10036,40.759192,-73.985186,5,3,125,1024749,1010180139,Midtown-Midtown South                                                      ,"1565 Broadway
(40.759192, -73.985186)"
Blue Fin,Full Serve,Seafood,"W Times Square
1567 Broadway",(212) 918-1400,www.brguestrestaurants.com,1,10036,40.756582,-73.989637,5,3,113,1000000,1009950001,Midtown-Midtown South                                                      ,"W Times Square 1567 Broadway
(40.756582, -73.989637)"
The Whiskey,Bar / Lounge,,1567 Broadway,2129307444,www.midnightoilbars.com,1,10036,40.759247,-73.985168,5,3,125,1024742,1010187501,Midtown-Midtown South                                                      ,"1567 Broadway
(40.759247, -73.985168)"
Aspen Social Club,Full Serve,American,157 W 47th St,(212) 221-7200 ,http://www.aspensocialclub.com/,1,10036,40.758678,-73.983342,5,4,125,1022676,1010000007,Midtown-Midtown South                                                      ,"157 W 47th St
(40.758678, -73.983342)"
Times Deli Caf√©,Caf√© / Deli,,158 W 44th St,212 944-1234,,1,10036,40.756763,-73.98467,5,4,119,1022623,1009960156,Midtown-Midtown South                                                      ,"158 W 44th St
(40.756763, -73.98467)"
Starbucks,Coffee,,1585 Broadway,2125417515,www.starbucks.com,1,10036,40.760216,-73.985334,5,3,125,1076193,1010197502,Midtown-Midtown South                                                      ,"1585 Broadway
(40.760216, -73.985334)"
vacant (former starbucks),Coffee,,1600 Broadway,2122451936,www.starbucks.com,1,10019,40.76035,-73.984713,5,4,125,1087187,1010207502,Midtown-Midtown South                                                      ,"1600 Broadway
(40.76035, -73.984713)"
Spotlight Times Square,Full Serve,American,1604-1610 Broadway,2129776773,,1,10019,40.760487,-73.984648,5,4,125,1024779,1010200038,Midtown-Midtown South                                                      ,"1604-1610 Broadway
(40.760487, -73.984648)"
San Leone,Full Serve,Italian,1674 Broadway,(212) 265-1414,,1,10019,40.762861,-73.983109,5,4,131,1024831,1010240131,Midtown-Midtown South                                                      ,"1674 Broadway
(40.762861, -73.983109)"
Ellen's Stardust Diner,Full Serve,American,1650 Broadway,(212) 956-5151,www.ellensstardustdiner.com,1,10019,40.761964,-73.983684,5,4,131,1024811,1010220035,Midtown-Midtown South                                                      ,"1650 Broadway
(40.761964, -73.983684)"
New York Bagel Company,Caf√© / Deli,,1674 Broadway,2123977720,www.networkbeyond.com,1,10019,40.762861,-73.983109,5,4,131,1024831,1010240131,Midtown-Midtown South                                                      ,"1674 Broadway
(40.762861, -73.983109)"
Crumbs,Quick Serve,Dessert,1675 Broadway,2127949800,http://crumbs.com/,1,10019,40.762963,-73.983073,5,3,131,1076199,1010240015,Midtown-Midtown South                                                      ,"1675 Broadway
(40.762963, -73.983073)"
Olive Garden Italian Restaurant,Full Serve,Italian,2 Times Sq,2123333254,www.olivegarden.com,1,10036,40.75931,-73.984857,5,4,125,1024757,1010197501,Midtown-Midtown South                                                      ,"2 Times Sq
(40.75931, -73.984857)"
Playwright Bar And Restaurant,Full Serve,American,202 W 49th St,(212) 262-9263,www.playwrighttavern.com,1,10019,40.760559,-73.983991,5,4,125,1024786,1010200136,Midtown-Midtown South                                                      ,"202 W 49th St
(40.760559, -73.983991)"
Dean & Deluca,Caf√© / Deli,,620 Eighth Ave,2122210308,www.deandeluca.com,1,10018,40.756039,-73.990651,5,3,113,1087186,1010127501,Midtown-Midtown South                                                      ,"620 Eighth Ave
(40.756039, -73.990651)"
Subway,Quick Serve,Fast Food,214 W 50th St,2122651822,,1,10019,40.761585,-73.984456,5,3,125,1024803,1010210048,Midtown-Midtown South                                                      ,"214 W 50th St
(40.761585, -73.984456)"
Europa Caf√©,Caf√© / Deli,,218 W 42nd St,(212) 664-1820 x14,,1,10036,40.756382,-73.987789,5,3,113,1024662,1010130041,Midtown-Midtown South                                                      ,"218 W 42nd St
(40.756382, -73.987789)"
Uncle A's Mini Mart,Caf√© / Deli,,220 W 41st St,(212) 921-7185,,1,10036,40.755717,-73.98828,5,3,113,1080831,1010120042,Midtown-Midtown South                                                      ,"220 W 41st St
(40.755717, -73.98828)"
The Alicart Restaurant Group,Catering,,1501 Broadway,2126759790,http://www.alicart.com/,1,10036,40.757103,-73.986193,5,3,119,1024706,1010150029,Midtown-Midtown South                                                      ,"1501 Broadway
(40.757103, -73.986193)"
Da Marino,Full Serve,Italian,220 W 49th St,(212) 541-6601,,1,10019,40.760987,-73.984987,5,3,125,1024781,1010200049,Midtown-Midtown South                                                      ,"220 W 49th St
(40.760987, -73.984987)"
Danny's Deli,Full Serve,Italian,224 W 47th St,(212) 921-1200,,1,10036,40.759697,-73.985818,5,3,125,1024743,1010180044,Midtown-Midtown South                                                      ,"224 W 47th St
(40.759697, -73.985818)"
Lp Food & Beverage Inc/Oceo,Catering,,224 W 49th St,2122626236,www.oceo.com,1,10019,40.761014,-73.985052,5,3,125,1024782,1010200051,Midtown-Midtown South                                                      ,"224 W 49th St
(40.761014, -73.985052)"
Oceo,Full Serve,Afghan,224 West 49th Street,212 262-6236,,1,10019,40.761014,-73.985052,5,3,125,1024782,1010200051,Midtown-Midtown South                                                      ,"224 West 49th Street
(40.761014, -73.985052)"
Serafina @ Time Hotel,Full Serve,Italian,224 W 49th St,212,,1,10019,40.761014,-73.985052,5,3,125,1024782,1010200051,Midtown-Midtown South                                                      ,"224 W 49th St
(40.761014, -73.985052)"
Gallagher's Steak House,Full Serve,Steakhouse,228 W. 52nd Street,(212) 245-5336,www.gallaghersnysteakhouse.com,1,10019,40.762911,-73.98372,5,3,131,1024819,1010230048,Midtown-Midtown South                                                      ,"228 W. 52nd Street
(40.762911, -73.98372)"
Carmine's,Full Serve,Italian,200 W 44th St,(212) 221-3800,www.carminesnyc.com,1,10036,40.757405,-73.98619,5,3,119,1024706,1010150029,Midtown-Midtown South                                                      ,"200 W 44th St
(40.757405, -73.98619)"
Carvel,Quick Serve,Dessert,1501 Broadway,212 391-6675,,1,10036,40.757103,-73.986193,5,3,119,1024706,1010150029,Midtown-Midtown South                                                      ,"1501 Broadway
(40.757103, -73.986193)"
Coldstone Creamery,Quick Serve,Dessert,"1501 Broadway, Suite 1604",(212) 398-1882,www.coldstonecreamery.com,1,10036,40.757103,-73.986193,5,3,119,1024706,1010150029,Midtown-Midtown South                                                      ,"1501 Broadway, Suite 1604
(40.757103, -73.986193)"
Havana Central,Full Serve,Cuban,151 West 46th Street,2123987440,www.havanacentral.com,1,10036,40.757998,-73.983667,5,4,125,1022663,1009990009,Midtown-Midtown South                                                      ,"151 West 46th Street
(40.757998, -73.983667)"
Domino's Pizza,Quick Serve,Pizza,230 W 41st St,2129440400,,1,10036,40.755802,-73.988482,5,3,113,1080830,1010120015,Midtown-Midtown South                                                      ,"230 W 41st St
(40.755802, -73.988482)"
Hurley's Steak and Seafood,Full Serve,Steakhouse,232 W 48th St,(212) 765-8981,,1,10036,40.760441,-73.985622,5,3,125,1024770,1010190054,Midtown-Midtown South                                                      ,"232 W 48th St
(40.760441, -73.985622)"
Pinnacle Bar,Full Serve,American,"234 W 42nd St
25th Floor",212-642-2607,www1.hilton.com/en_US/hi/hotel/NYCTSHF-Hilton-Times-Square-New-York/dining.do,1,10036,40.756747,-73.988659,5,3,113,1024665,1010130012,Midtown-Midtown South                                                      ,"234 W 42nd St 25th Floor
(40.756747, -73.988659)"
Applebee's Neighborhood Grill and Bar,Full Serve,American,234 W 42nd St,914-777-2331 Ext.116,www.ApplebeesNY.com,1,10036,40.756747,-73.988659,5,3,113,1024665,1010130012,Midtown-Midtown South                                                      ,"234 W 42nd St
(40.756747, -73.988659)"
Chock full o' Nuts Cafe,Caf√© / Deli,,234 W 42nd St,2127645969,www.chockfullonuts.com,1,10036,40.756747,-73.988659,5,3,113,1024665,1010130012,Midtown-Midtown South                                                      ,"234 W 42nd St
(40.756747, -73.988659)"
Juniors Restaurant,Full Serve,American,1515 Broadway,212-302-2000,www.juniorscheescake.com,1,10036,40.757636,-73.985804,5,3,119,1024714,1010160036,Midtown-Midtown South                                                      ,"1515 Broadway
(40.757636, -73.985804)"
Dippin' Dots,Quick Serve,Dessert,234 W 42nd St,,www.dippindots.com,1,10036,40.756747,-73.988659,5,3,113,1024665,1010130012,Midtown-Midtown South                                                      ,"234 W 42nd St
(40.756747, -73.988659)"
Manchu WOK,Quick Serve,Chinese,234 W 42nd St,,www.manchuwok.com,1,10036,40.756747,-73.988659,5,3,113,1024665,1010130012,Midtown-Midtown South                                                      ,"234 W 42nd St
(40.756747, -73.988659)"
Ranch 1,Quick Serve,Fast Food,234 W 42nd St,,,1,10036,40.756747,-73.988659,5,3,113,1024665,1010130012,Midtown-Midtown South                                                      ,"234 W 42nd St
(40.756747, -73.988659)"
EASY INTERNET CAFE TIME SQUARE LLC,Caf√© / Deli,,258 W 42nd St,,,1,10036,40.756895,-73.989009,5,3,113,1024669,1010130057,Midtown-Midtown South                                                      ,"258 W 42nd St
(40.756895, -73.989009)"
Howard Johnson's Cafe',Caf√© / Deli,,1551-1553 Broadway,,,1,10036,40.758805,-73.985312,5,3,125,1083727,1010180026,Midtown-Midtown South                                                      ,"1551-1553 Broadway
(40.758805, -73.985312)"
Bar 10,Bar / Lounge,,270 W 43rd St,(212) 201-2764,www.westinny.com,1,10036,40.757482,-73.988309,5,3,119,1087141,1010140058,Midtown-Midtown South                                                      ,"270 W 43rd St
(40.757482, -73.988309)"
Dale & Thomas Popcorn,Quick Serve,Other,1592 Broadway,(212) 581-1872,www.daleandthomas.com,1,10036,40.759963,-73.984883,5,4,125,1024757,1010197501,Midtown-Midtown South                                                      ,"1592 Broadway
(40.759963, -73.984883)"
Encore Restaurant @ Marriott Marquis,Full Serve,American,"1535 Broadway
5th Floor",(212) 704-8849,www.NYMarriottMarquis.com,1,10036,40.758267,-73.985468,5,3,119,1024727,1010170029,Midtown-Midtown South                                                      ,"1535 Broadway 5th Floor
(40.758267, -73.985468)"
Crown Deli,Full Serve,Italian,1678 Broadway,(212) 265-1414,,1,10019,40.762977,-73.983041,5,4,131,1024831,1010240131,Midtown-Midtown South                                                      ,"1678 Broadway
(40.762977, -73.983041)"
The Two Times Square Restaurant,Full Serve,American,714 Seventh Ave,(212) 261-5200,www.twotimessquarerestaurant.com,1,10036,40.759581,-73.984366,5,4,125,1024757,1010197501,Midtown-Midtown South                                                      ,"714 Seventh Ave
(40.759581, -73.984366)"
The View Restaurant & Lounge @ Marriott Marquis,Full Serve,American,"1535 Broadway
48th Floor",(212) 704-8849,www.NYMarriottMarquis.com,1,10036,40.758267,-73.985468,5,3,119,1024727,1010170029,Midtown-Midtown South                                                      ,"1535 Broadway 48th Floor
(40.758267, -73.985468)"
Applebee's,Full Serve,American,205 W 50th St,(212) 262-4022,www.applebeesny.com,1,10019,40.761382,-73.983926,5,4,131,1024810,1010220026,Midtown-Midtown South                                                      ,"205 W 50th St
(40.761382, -73.983926)"
Social Bar NYC & Latitude Bar Grill,Full Serve,American,795 Eighth Avenue,(212) 459-0643,www.manhattan.crowneplaza.com,1,10019,40.761212,-73.9869,4,3,127,1025142,1010390030,Clinton                                                                    ,"795 Eighth Avenue
(40.761212, -73.9869)"
The Long Room,Bar / Lounge,,120 West 44th St.,(212) 997-3933,www.thelongroomnyc.com,1,10036,40.756461,-73.983952,5,4,119,1022616,1009960043,Midtown-Midtown South                                                      ,"120 West 44th St.
(40.756461, -73.983952)"
Scott Alling-Convivial Catering,Catering,,130 W 42nd St,,,1,10036,40.755278,-73.985172,5,4,113,1022577,1009940045,Midtown-Midtown South                                                      ,"130 W 42nd St
(40.755278, -73.985172)"
Gingers Restaurant,Full Serve,American,1568 Broadway,(212) 403-6371,www.nyc.doubletreehotels.com,1,10036,40.759055,-73.98471,5,4,125,1000000,1009990061,Midtown-Midtown South                                                      ,"1568 Broadway
(40.759055, -73.98471)"
Scott Alliang-Demonstration Room,Catering,,130 W 42nd St,,,1,10036,40.755278,-73.985172,5,4,113,1022577,1009940045,Midtown-Midtown South                                                      ,"130 W 42nd St
(40.755278, -73.985172)"
Blockheads,Full Serve,Mexican,825 Eighth Ave,,,1,10019,40.762074,-73.986275,4,3,127,1076203,1010400029,Clinton                                                                    ,"825 Eighth Ave
(40.762074, -73.986275)"
David's Potbelly Stove Cafe,Caf√© / Deli,,1501 Broadway,(212) 626-9000,,1,10036,40.757103,-73.986193,5,3,119,1024706,1010150029,Midtown-Midtown South                                                      ,"1501 Broadway
(40.757103, -73.986193)"
Time Square Deli,Caf√© / Deli,,1501 Broadway,(212) 840-7983,,1,10036,40.757103,-73.986193,5,3,119,1024706,1010150029,Midtown-Midtown South                                                      ,"1501 Broadway
(40.757103, -73.986193)"
Baja Fresh Mexican Grill,Quick Serve,Mexican,1441 Broadway,(212) 764-9084,,1,10018,40.754707,-73.986753,5,3,113,1022569,1009930055,Midtown-Midtown South                                                      ,"1441 Broadway
(40.754707, -73.986753)"
Bobby Van's Steakhouse,Full Serve,American,120 West 45th Street,,,1,10036,40.757117,-73.983544,5,4,119,1069581,1009970041,Midtown-Midtown South                                                      ,"120 West 45th Street
(40.757117, -73.983544)"
F & H Liquor Center Inc,Consumables,Beverages,810 7th Ave,(212) 247-4991,,1,10019,40.762639,-73.982146,5,4,131,1024828,1010240038,Midtown-Midtown South                                                      ,"810 7th Ave
(40.762639, -73.982146)"
Martini's Restaurant,Full Serve,Italian,810 7th Ave,(212) 767-1146,,1,10019,40.762639,-73.982146,5,4,131,1024828,1010240038,Midtown-Midtown South                                                      ,"810 7th Ave
(40.762639, -73.982146)"
Montenapo Restaurant,Full Serve,Italian,250 West 41st Street,(212) 764-7663 ,montenaporestaurant.com,1,10036,40.755973,-73.988886,5,3,113,1087186,1010127501,Midtown-Midtown South                                                      ,"250 West 41st Street
(40.755973, -73.988886)"
Starbucks,Coffee,,1656 Broadway,(212) 704-8937 ,,1,10019,40.762257,-73.983492,5,4,131,1024818,1010230029,Midtown-Midtown South                                                      ,"1656 Broadway
(40.762257, -73.983492)"
Aureole,Full Serve,American,1 Bryant Park,2123191660,www.charliepalmer.com,1,10036,40.755182,-73.98388,5,4,119,1087268,1009950033,Midtown-Midtown South                                                      ,"1 Bryant Park
(40.755182, -73.98388)"
Dunhill Cafe,Full Serve,American,109 W 45th St,(212) 944-8484,,1,10036,40.757026,-73.983291,5,4,119,1022641,1009980026,Midtown-Midtown South                                                      ,"109 W 45th St
(40.757026, -73.983291)"
Bubba Gump Shrimp Co.,Full Serve,Seafood,"209 Avenida Fabricante
Suite 200",(212) 391-7100,www.bubbagump.com,1,,,,,,,,,,"209 Avenida Fabricante Suite 200
(33.4463, -117.587655)"
Cranberry Gourmet,Caf√© / Deli,,115 W 45th St,(212) 730-9495,,1,10036,40.757078,-73.983411,5,4,119,1022640,1009980024,Midtown-Midtown South                                                      ,"115 W 45th St
(40.757078, -73.983411)"
Haggis Inc,Full Serve,Scottish,120 W 44th St,2128408413,,1,10036,40.756461,-73.983952,5,4,119,1022616,1009960043,Midtown-Midtown South                                                      ,"120 W 44th St
(40.756461, -73.983952)"
Saju French Bistro @ Hotel Mela,Full Serve,French,120 W 44th St,212-977-saju,www.sajunyc.com,1,10036,40.756461,-73.983952,5,4,119,1022616,1009960043,Midtown-Midtown South                                                      ,"120 W 44th St
(40.756461, -73.983952)"
N Valenti Restaurant Associates,Catering,,120 W 45th St,2127898145,,1,10036,40.757117,-73.983544,5,4,119,1069581,1009970041,Midtown-Midtown South                                                      ,"120 W 45th St
(40.757117, -73.983544)"
Patina Restaurant Group,Catering,,120 W 45th St,(212) 789-8100,,1,10036,40.757117,-73.983544,5,4,119,1069581,1009970041,Midtown-Midtown South                                                      ,"120 W 45th St
(40.757117, -73.983544)"
Connolly's Pub And Restaurant,Bar / Lounge,,121 W 45th St,(212) 597-5126,www.ConnollysPubAndRestaurant.com,1,10036,40.75713,-73.983533,5,4,119,1022638,1009980021,Midtown-Midtown South                                                      ,"121 W 45th St
(40.75713, -73.983533)"
Cafe Un Deux Trois,Full Serve,French,123 W 44th St,(212) 354-4148,www.cafeuneuxtros.biz,1,10036,40.756491,-73.983977,5,4,119,1022629,1009970019,Midtown-Midtown South                                                      ,"123 W 44th St
(40.756491, -73.983977)"
The Perfect Pint,Bar / Lounge,,123 W 45th St,(212) 354-1099,www.theperfectpintnyc.com,1,10036,40.757147,-73.983573,5,4,119,1022657,1009980120,Midtown-Midtown South                                                      ,"123 W 45th St
(40.757147, -73.983573)"
Duvel Bar Rest,Full Serve,Belgian,125 W 43rd St,(212) 768-0200,www.bxcafe.com,1,10036,40.75586,-73.984418,5,4,119,1022614,1009960020,Midtown-Midtown South                                                      ,"125 W 43rd St
(40.75586, -73.984418)"
Trattoria Dopo Teatro,Full Serve,Italian,125 W 44th St,(212) 869-2849,dopoteatro.com,1,10036,40.756505,-73.984017,5,4,119,1022629,1009970019,Midtown-Midtown South                                                      ,"125 W 44th St
(40.756505, -73.984017)"
H&B Heartland Burgers,Full Serve,American,127 W 43rd St,(646) 366-0235,http://www.heartlandbrewery.com/Times_Square.php,1,10036,40.755873,-73.984454,5,4,119,1022613,1009960014,Midtown-Midtown South                                                      ,"127 W 43rd St
(40.755873, -73.984454)"
Heartland Brewery,Full Serve,American,127 W 43rd St,212-366-0235,www.heartlandbrewery.com,1,10036,40.755873,-73.984454,5,4,119,1022613,1009960014,Midtown-Midtown South                                                      ,"127 W 43rd St
(40.755873, -73.984454)"
Cafe O,Full Serve,American,130 W 42nd St,(212) 852-4900,,1,10036,40.755278,-73.985172,5,4,113,1022577,1009940045,Midtown-Midtown South                                                      ,"130 W 42nd St
(40.755278, -73.985172)"
NIOS Restaurant @ Muse Hotel,Full Serve,American,130 W 46th St,212 485-2400,districtnyc.com,1,10036,40.757814,-73.98328,5,4,119,1022645,1009980047,Midtown-Midtown South                                                      ,"130 W 46th St
(40.757814, -73.98328)"
O'Brien's Bar and Grill,Bar / Lounge,American,134 W 46th St,(212) 391-1516,,1,10036,40.757847,-73.98336,5,4,119,1022646,1009980050,Midtown-Midtown South                                                      ,"134 W 46th St
(40.757847, -73.98336)"
Pronto Pizza-Lemlen Pizza,Full Serve,Pizza,135 W 41st St,(212) 221-8886,,1,10036,40.754691,-73.985797,5,4,113,1022577,1009940045,Midtown-Midtown South                                                      ,"135 W 41st St
(40.754691, -73.985797)"
Bobby Vans,Full Serve,Steakhouse,135 W 50th St,212-957-5050,www.bobbyvans.com,1,10020,40.760374,-73.981533,5,4,131,1022708,1010030005,Midtown-Midtown South                                                      ,"135 W 50th St
(40.760374, -73.981533)"
Bocca To Go Cucian Italiana,Full Serve,Italian,135 W 50th St,(212) 582-3000,www.boccatogo.com,1,10020,40.760374,-73.981533,5,4,131,1022708,1010030005,Midtown-Midtown South                                                      ,"135 W 50th St
(40.760374, -73.981533)"
Pret a Manger,Caf√© / Deli,,135 W 50th St,(212) 489-6458,,1,10020,40.760374,-73.981533,5,4,131,1022708,1010030005,Midtown-Midtown South                                                      ,"135 W 50th St
(40.760374, -73.981533)"
Dave & Buster's,Full Serve,American,2481 Manana Drive,(646) 495-2015,www.daveandbusters.com,1,,,,,,,,,,"2481 Manana Drive
(32.873859, -96.894618)"
Qdoba Mexican Grill,Quick Serve,Mexican,135 W 50th St,2127670040,www.qdoba.com,1,10020,40.760374,-73.981533,5,4,131,1022708,1010030005,Midtown-Midtown South                                                      ,"135 W 50th St
(40.760374, -73.981533)"
Moda @ Flatotel,Full Serve,Italian,135 W 52nd St,(212) 887-9880,,1,10019,40.761736,-73.980883,5,4,131,1023160,1010057501,Midtown-Midtown South                                                      ,"135 W 52nd St
(40.761736, -73.980883)"
Margon Restaurant Co.,Full Serve,Cuban,136 W 46th St,(212) 354-5013,,1,10036,40.757863,-73.9834,5,4,119,1022647,1009980051,Midtown-Midtown South                                                      ,"136 W 46th St
(40.757863, -73.9834)"
Subway,Quick Serve,Fast Food,136 W 44th St,2128400792,www.subway.com wwww.papajohns.com,1,10036,40.756587,-73.984255,5,4,119,1022618,1009960049,Midtown-Midtown South                                                      ,"136 W 44th St
(40.756587, -73.984255)"
Minar Indian Restaurant,Full Serve,Indian,138 W 46th St,(212) 398-4600,www.minarny.com,1,10036,40.757882,-73.983439,5,4,119,1022658,1009980151,Midtown-Midtown South                                                      ,"138 W 46th St
(40.757882, -73.983439)"
Jimmy's Corner,Bar / Lounge,,140 W 44th St,(212) 221-9510,,1,10036,40.75662,-73.984331,5,4,119,1022619,1009960050,Midtown-Midtown South                                                      ,"140 W 44th St
(40.75662, -73.984331)"
Metro Deli/ Ranch #1,Caf√© / Deli,,141 W 41st St,(212) 768-1111,,1,10036,40.754756,-73.985956,5,4,113,1022574,1009940016,Midtown-Midtown South                                                      ,"141 W 41st St
(40.754756, -73.985956)"
Starbucks,Coffee,,1500 Broadway,(212) 221-7515 ,,1,10036,40.756856,-73.985973,5,4,119,1022610,1009960001,Midtown-Midtown South                                                      ,"1500 Broadway
(40.756856, -73.985973)"
"KFC, Tim Horton, Pizza Hut",Coffee,,761 Seventh Ave,(212) 767-8347,,1,10019,40.761184,-73.983186,5,4,131,1022710,1010037501,Midtown-Midtown South                                                      ,"761 Seventh Ave
(40.761184, -73.983186)"
Tad's Steakhouse,Full Serve,Steakhouse,761 Seventh Ave,(212) 382-1164,,1,10019,40.761184,-73.983186,5,4,131,1022710,1010037501,Midtown-Midtown South                                                      ,"761 Seventh Ave
(40.761184, -73.983186)"
Haagen-Dazs,Quick Serve,Dessert,761-779 Seventh Ave,,www.haagen-dazs.com,1,10019,40.761184,-73.983186,5,4,131,1022710,1010037501,Midtown-Midtown South                                                      ,"761-779 Seventh Ave
(40.761184, -73.983186)"
Pizza Hut,Quick Serve,Pizza,761-779 Seventh Ave,2127678347,www.pizzahut.com,1,10019,40.761184,-73.983186,5,4,131,1022710,1010037501,Midtown-Midtown South                                                      ,"761-779 Seventh Ave
(40.761184, -73.983186)"
T.G.I. Friday's,Full Serve,American,761 Seventh Ave,2127678349,www.tgifridays.com,1,10019,40.761184,-73.983186,5,4,131,1022710,1010037501,Midtown-Midtown South                                                      ,"761 Seventh Ave
(40.761184, -73.983186)"
Sbarro,Quick Serve,Pizza,701 Seventh Ave,2122219725,,1,10036,40.759293,-73.984543,5,4,125,1083718,1010000001,Midtown-Midtown South                                                      ,"701 Seventh Ave
(40.759293, -73.984543)"
Tad's Steak House,Full Serve,Steakhouse,701 Seventh Ave,(212) 767-8348,,1,10036,40.759293,-73.984543,5,4,125,1083718,1010000001,Midtown-Midtown South                                                      ,"701 Seventh Ave
(40.759293, -73.984543)"
Papa John's/Subway,Quick Serve,Pizza,765 Eighth Ave,2122451900,www.papajohns.com,1,10036,40.76029,-73.987572,4,3,127,1025055,1010370035,Clinton                                                                    ,"765 Eighth Ave
(40.76029, -73.987572)"
Europa Cafe,Caf√© / Deli,,787 Seventh Ave,2125812517,www.europacafe.com,1,10019,40.761955,-73.982622,5,4,131,1023157,1010040020,Midtown-Midtown South                                                      ,"787 Seventh Ave
(40.761955, -73.982622)"
LyBane Wine Bar,Full Serve,Italian,709 Eighth Ave,(212) 582-2012,,1,10036,40.758885,-73.988604,4,3,121,1024992,1010350036,Clinton                                                                    ,"709 Eighth Ave
(40.758885, -73.988604)"
Charley O's,Full Serve,American,713 Eighth Ave,2129770025,,1,10036,40.759011,-73.988514,4,3,121,1024992,1010350036,Clinton                                                                    ,"713 Eighth Ave
(40.759011, -73.988514)"
Chicken Bar,Full Serve,American,717 Eighth Ave,(212) 245-5111,,1,10036,40.759264,-73.98833,4,3,121,1025011,1010360029,Clinton                                                                    ,"717 Eighth Ave
(40.759264, -73.98833)"
Starbucks,Coffee,,770 Eighth Ave,2128309001,www.starbucks.com,1,10036,40.760496,-73.987395,5,3,125,1086225,1010190001,Midtown-Midtown South                                                      ,"770 Eighth Ave
(40.760496, -73.987395)"
Pigalle,Full Serve,French,790 Eighth Ave,(212) 489-2233,www.pigallenyc.com,1,10019,40.761127,-73.98694,5,3,125,1024771,1010207501,Midtown-Midtown South                                                      ,"790 Eighth Ave
(40.761127, -73.98694)"
A Slice of New York Pizza,Quick Serve,Pizza,727 Eighth Ave,212-453-8970,,1,10036,40.759576,-73.988099,4,3,121,1081652,1010360036,Clinton                                                                    ,"727 Eighth Ave
(40.759576, -73.988099)"
Tonic Sports Bar & Restaurant,Full Serve,American,727 Seventh Ave,(212) 382-1059,www.thetonicbar.com,1,10019,40.760059,-73.984005,5,4,125,1022690,1010010004,Midtown-Midtown South                                                      ,"727 Seventh Ave
(40.760059, -73.984005)"
Daniela's Trattoria,Full Serve,Italian,728 Eighth Ave,212 869-3585,,1,10036,40.759327,-73.988258,5,3,119,1024719,1010170002,Midtown-Midtown South                                                      ,"728 Eighth Ave
(40.759327, -73.988258)"
Spice Fusion,Full Serve,Indian,777 Eighth Ave,212-757-8100,www.myspicefusion.com,1,10036,40.76068,-73.987287,4,3,127,1025101,1010380031,Clinton                                                                    ,"777 Eighth Ave
(40.76068, -73.987287)"
Latitude,Full Serve,American,783 Eighth Ave,(212) 245-3034,,1,10036,40.760814,-73.987189,4,3,127,1025103,1010380034,Clinton                                                                    ,"783 Eighth Ave
(40.760814, -73.987189)"
Brazil Grill,Full Serve,Brazilian,787 Eighth Ave,(212) 307-9449,http://cityinsights.com/newyork/brazilgrill.htm,1,10036,40.760902,-73.987124,4,3,127,1025105,1010380036,Clinton                                                                    ,"787 Eighth Ave
(40.760902, -73.987124)"
Hawaiian Tropic Zone,Full Serve,American,729 Seventh Ave,212-626-7312,www.hawaiiantropiczone.com,1,10019,40.760103,-73.983973,5,4,125,1022699,1010017501,Midtown-Midtown South                                                      ,"729 Seventh Ave
(40.760103, -73.983973)"
Houlihan's Restaurant & Bar,Full Serve,American,729 Seventh Ave,2126267316,www.houlihans.com,1,10019,40.760103,-73.983973,5,4,125,1022699,1010017501,Midtown-Midtown South                                                      ,"729 Seventh Ave
(40.760103, -73.983973)"
Ruby Tuesday,Full Serve,American,7 Times Sq,(212) 382-3898 ,http://www.rubytuesday.com/,1,10036,40.755915,-73.986681,5,3,113,1086069,1009940001,Midtown-Midtown South                                                      ,"7 Times Sq
(40.755915, -73.986681)"
Playwright Celtic Pub,Bar / Lounge,,732 Eighth Ave,(212) 354-8404,http://www.playwrightcelticpubnyc.com/,1,10036,40.759401,-73.988204,5,3,119,1024721,1010170004,Midtown-Midtown South                                                      ,"732 Eighth Ave
(40.759401, -73.988204)"
Smith's Bar & Restaurant,Full Serve,American,701 Eighth Ave,(212) 246-3268,www.smithsbar.com,1,10036,40.758632,-73.988785,4,3,121,1024991,1010350029,Clinton                                                                    ,"701 Eighth Ave
(40.758632, -73.988785)"
Pax Foods,Caf√© / Deli,,740 Seventh Ave,(212) 399-9100,www.paxfood.com,1,10019,40.760369,-73.983807,5,4,125,1024778,1010200036,Midtown-Midtown South                                                      ,"740 Seventh Ave
(40.760369, -73.983807)"
"Godiva Chocolatier, Inc.",Consumables,Non-beverages,745 Seventh Ave,(212) 921-2193,www.godiva.com,1,10019,40.760605,-73.983612,5,4,125,1084667,1010020001,Midtown-Midtown South                                                      ,"745 Seventh Ave
(40.760605, -73.983612)"
Hale & Hearty,Caf√© / Deli,,745 Seventh Ave,2122219666,www.haleandhearty.com,1,10019,40.760605,-73.983612,5,4,125,1084667,1010020001,Midtown-Midtown South                                                      ,"745 Seventh Ave
(40.760605, -73.983612)"
Majestic Delication Caf√©,Caf√© / Deli,,750 Seventh Ave,2125818249,www.majesticdeli.com,1,10019,40.760753,-73.983525,5,4,125,1024795,1010210026,Midtown-Midtown South                                                      ,"750 Seventh Ave
(40.760753, -73.983525)"
Ruby Foo's,Full Serve,Pan Asian,750 Seventh Ave,(212) 489-5600,www.brguestrestaurants.com,1,10019,40.760753,-73.983525,5,4,125,1024795,1010210026,Midtown-Midtown South                                                      ,"750 Seventh Ave
(40.760753, -73.983525)"
Starbucks,Coffee,,750 Seventh Ave,2129740032,www.starbucks.com,1,10019,40.760753,-73.983525,5,4,125,1024795,1010210026,Midtown-Midtown South                                                      ,"750 Seventh Ave
(40.760753, -73.983525)"
Kodama Sushi,Full Serve,Japanese,301 W 45th St,(212) 582-8065 ,http://kodamajapanesenyc.com/,1,10036,40.759351,-73.988814,4,3,121,1025011,1010360029,Clinton                                                                    ,"301 W 45th St
(40.759351, -73.988814)"
"Mean Fiddler, The",Bar / Lounge,,266 W 47th St,(212) 354-2950,,1,10036,40.76001,-73.986557,5,3,125,1024748,1010180061,Midtown-Midtown South                                                      ,"266 W 47th St
(40.76001, -73.986557)"
Midtown Gourmet Deli,Caf√© / Deli,,840 Eighth Ave,(212) 586-6433,,1,10019,40.762694,-73.985799,5,3,131,1024813,1010220061,Midtown-Midtown South                                                      ,"840 Eighth Ave
(40.762694, -73.985799)"
Nan King Chinese Cuisine,Full Serve,Chinese,1632 Broadway,(212) 586-3100,,1,10019,40.761516,-73.983976,5,4,131,1024810,1010220026,Midtown-Midtown South                                                      ,"1632 Broadway
(40.761516, -73.983976)"
Patzeria Pizza,Quick Serve,Pizza,231 W 46th St,(212) 575-7646,http://www.patzeriaspizzanyc.com,1,10036,40.759101,-73.986276,5,3,125,1024738,1010180013,Midtown-Midtown South                                                      ,"231 W 46th St
(40.759101, -73.986276)"
Piano Due,Quick Serve,American,151 W 51st St,(212) 399-9400,http://www.pianoduenyc.net/,1,10019,40.761324,-73.981846,5,4,131,1023157,1010040020,Midtown-Midtown South                                                      ,"151 W 51st St
(40.761324, -73.981846)"
Sombrero,Full Serve,Mexican,303 W 48th St,(212) 586-4853,www.sombreroRestaurant.com,1,10036,40.76124,-73.987478,4,3,127,1025141,1010390029,Clinton                                                                    ,"303 W 48th St
(40.76124, -73.987478)"
Thalia Kitchen,Full Serve,Italian,828 Eighth Ave,(212) 399-4444,http://www.restaurantthalia.com/,1,10019,40.762192,-73.986164,5,3,125,1085498,1010210001,Midtown-Midtown South                                                      ,"828 Eighth Ave
(40.762192, -73.986164)"
Tom and Toon,Full Serve,Thai,245 W 51st St,,,1,10019,40.762439,-73.984492,5,3,131,1024816,1010230006,Midtown-Midtown South                                                      ,"245 W 51st St
(40.762439, -73.984492)"
Grand Sichuan,Full Serve,Chinese,368 W 46th St,,,1,10036,40.760548,-73.989734,4,3,121,1025028,1010360060,Clinton                                                                    ,"368 W 46th St
(40.760548, -73.989734)"
Chopp't,Caf√© / Deli,,1460 Broadway,,,1,10036,40.754998,-73.986284,5,4,113,1022573,1009947504,Midtown-Midtown South                                                      ,"1460 Broadway
(40.754998, -73.986284)"
Glass House Tavern,Full Serve,American,"252 W 47th St
Storefront",(212) 730-4800,http://glasshousetavern.com,1,10036,40.759906,-73.986312,5,3,125,1024745,1010180055,Midtown-Midtown South                                                      ,"252 W 47th St Storefront
(40.759906, -73.986312)"
Off Broadway Deli/ Pizza,Caf√© / Deli,,726 Eighth Ave,,,1,10036,40.759291,-73.988287,5,3,119,1024732,1010170101,Midtown-Midtown South                                                      ,"726 Eighth Ave
(40.759291, -73.988287)"
Z Deli-Pizzeria,Quick Serve,Pizza,803 Eighth Ave,(212) 315-1659,,1,10019,40.761371,-73.986785,4,3,127,1025144,1010390032,Clinton                                                                    ,"803 Eighth Ave
(40.761371, -73.986785)"
Zheng's Lucky Sunday Garden,Quick Serve,Chinese,856 Eighth Ave,(212) 459-3607,http://www.luckysundayny.com/,1,10019,40.763207,-73.985423,5,3,131,1081644,1010230002,Midtown-Midtown South                                                      ,"856 Eighth Ave
(40.763207, -73.985423)"
Charley O's,Full Serve,American,1611 Broadway,(212) 246-1960,,1,10019,40.760696,-73.984568,5,3,125,1076195,1010200046,Midtown-Midtown South                                                      ,"1611 Broadway
(40.760696, -73.984568)"
Amadeus Pizza,Quick Serve,Pizza,856 Eighth Ave,(212) 489-6187,www.rayspizzany.com,1,10019,40.763207,-73.985423,5,3,131,1081644,1010230002,Midtown-Midtown South                                                      ,"856 Eighth Ave
(40.763207, -73.985423)"
Andy's Deli & Natural Foods,Caf√© / Deli,,270 W 47th St,,,1,10036,40.76004,-73.98663,5,3,125,1024748,1010180061,Midtown-Midtown South                                                      ,"270 W 47th St
(40.76004, -73.98663)"
Angus McIndoe Restaurant,Full Serve,American,258 West 44th Street,(212) 221-9222,www.AngusMcIndoe.com,1,10036,40.758108,-73.987861,5,3,119,1024710,1010150059,Midtown-Midtown South                                                      ,"258 West 44th Street
(40.758108, -73.987861)"
Brazil Brazil,Full Serve,Brazilian,328 W 46th St,(212) 957-4300,www.brazilbrazilrestaurant.com,1,10036,40.760205,-73.988922,4,3,121,1076202,1010360045,Clinton                                                                    ,"328 W 46th St
(40.760205, -73.988922)"
Sofia's,Full Serve,Italian,221 W 46th St,(212) 719-5799,www.sofiasny.com,1,10036,40.759025,-73.986092,5,3,125,1076192,1010180018,Midtown-Midtown South                                                      ,"221 W 46th St
(40.759025, -73.986092)"
VACANT (frmerly Starbucks),Coffee,,"1600 Broadway
Storefront",,,1,10019,40.76035,-73.984713,5,4,125,1087187,1010207502,Midtown-Midtown South                                                      ,"1600 Broadway Storefront
(40.76035, -73.984713)"
Cafe Nicole @ Novotel,Full Serve,French,226 W 52nd St,(951) 729-8661,http://www.novotel.com/gb/hotel-0753-novotel-new-york-times-square/restaurant.shtml,1,10019,40.762897,-73.983683,5,3,131,1024817,1010230018,Midtown-Midtown South                                                      ,"226 W 52nd St
(40.762897, -73.983683)"
Cafe Edison,Full Serve,American,228 W 47th St,(212) 840-5000,www.edisonhotelnyc.com,1,10036,40.759727,-73.985886,5,3,125,1076192,1010180018,Midtown-Midtown South                                                      ,"228 W 47th St
(40.759727, -73.985886)"
Ciro Trattoria,Full Serve,Italian,813 Eighth Ave,(212) 307-5484,www.cirotrattorianyc.com,1,10019,40.761569,-73.98664,4,3,127,1025144,1010390032,Clinton                                                                    ,"813 Eighth Ave
(40.761569, -73.98664)"
Olympic Restaurant,Full Serve,American,807 Eighth Ave,(212) 956-3230,,1,10019,40.761451,-73.986727,4,3,127,1025144,1010390032,Clinton                                                                    ,"807 Eighth Ave
(40.761451, -73.986727)"
Emmett O'Lunney's,Bar / Lounge,,210 W 50th St,(212) 957-5100,www.emmettolunneys.com,1,10019,40.76156,-73.984395,5,3,125,1024802,1010210045,Midtown-Midtown South                                                      ,"210 W 50th St
(40.76156, -73.984395)"
Maxie's Delicatessen,Caf√© / Deli,,723 Seventh Ave,(212) 398-1118,,1,10019,40.759974,-73.984067,5,4,125,1022688,1010010001,Midtown-Midtown South                                                      ,"723 Seventh Ave
(40.759974, -73.984067)"
Cyber Cafe,Caf√© / Deli,,250 W 49th St,,,1,10019,40.761193,-73.985478,5,3,125,1024785,1010200059,Midtown-Midtown South                                                      ,"250 W 49th St
(40.761193, -73.985478)"
Palm Restaurant,Full Serve,Steakhouse,250 W 50th St,(212) 333-7256,http://www.thepalm.com/,1,10019,40.76183,-73.985034,5,3,125,1085498,1010210001,Midtown-Midtown South                                                      ,"250 W 50th St
(40.76183, -73.985034)"
Jade Terrace,Full Serve,Chinese,268 W 47th St,(212) 398-3800 ,,1,10036,40.760024,-73.986594,5,3,125,1024748,1010180061,Midtown-Midtown South                                                      ,"268 W 47th St
(40.760024, -73.986594)"
vacant (Red Mango),Quick Serve,Dessert,723 Eighth Ave,(212) 315-0101,http://www.redmangousa.com/default.html,1,10036,40.75945,-73.988193,4,3,121,1025011,1010360029,Clinton                                                                    ,"723 Eighth Ave
(40.75945, -73.988193)"
Russian Vodka Room,Full Serve,Russian,265 W 52nd St,(212) 307-5835 ,http://russianvodkaroom.com/,1,10019,40.763183,-73.984315,5,3,131,1024825,1010240001,Midtown-Midtown South                                                      ,"265 W 52nd St
(40.763183, -73.984315)"
Katen Sushi Bar,Full Serve,Japanese,"1535 Broadway
8th Floor",(212) 398-1900 ,,1,10036,40.758267,-73.985468,5,3,119,1024727,1010170029,Midtown-Midtown South                                                      ,"1535 Broadway 8th Floor
(40.758267, -73.985468)"
Rum House,Bar / Lounge,,228 W 47th St,(212) 869-3005,,1,10036,40.759727,-73.985886,5,3,125,1076192,1010180018,Midtown-Midtown South                                                      ,"228 W 47th St
(40.759727, -73.985886)"
Hudson's Sports Bar & Grill,Quick Serve,American,811 Seventh Ave,(212) 841-6551,,1,10019,40.762674,-73.982095,5,4,131,1023159,1010050001,Midtown-Midtown South                                                      ,"811 Seventh Ave
(40.762674, -73.982095)"
Russo's Steak and Pasta,Full Serve,American,790 Seventh Ave,(212) 621-8523,shearton.com/manhattan,1,10019,40.762005,-73.982612,5,4,131,1024818,1010230029,Midtown-Midtown South                                                      ,"790 Seventh Ave
(40.762005, -73.982612)"
Starlite Deli,Caf√© / Deli,,212 W 44th St,(212) 840-1859 ,,1,10036,40.757531,-73.986493,5,3,119,1024706,1010150029,Midtown-Midtown South                                                      ,"212 W 44th St
(40.757531, -73.986493)"
Villa Pizza,Quick Serve,Pizza,662 Eighth Ave,(212) 302-2941,www.villapizza.com,1,10036,40.757381,-73.989669,5,3,119,1087142,1010140001,Midtown-Midtown South                                                      ,"662 Eighth Ave
(40.757381, -73.989669)"
Harmony View,Bar / Lounge,,210 W 50th St,(212) 957-5100,www.harmonyview.com/,1,10019,40.76156,-73.984395,5,3,125,1024802,1010210045,Midtown-Midtown South                                                      ,"210 W 50th St
(40.76156, -73.984395)"
Pearls,Full Serve,Chinese,732 Seventh Ave,(212) 582-7380,,1,10019,40.760177,-73.983944,5,4,125,1024779,1010200038,Midtown-Midtown South                                                      ,"732 Seventh Ave
(40.760177, -73.983944)"
Frankie & Johnnie's Steakhouse,Full Serve,Steakhouse,269 W 45th St,(212) 997-9494,http://www.frankieandjohnnies.com/,1,10036,40.758863,-73.987641,5,3,119,1024718,1010170001,Midtown-Midtown South                                                      ,"269 W 45th St
(40.758863, -73.987641)"
Times Square Hot Bagels,Caf√© / Deli,,200 W 44th St,(212) 997-7300,,1,10036,40.757405,-73.98619,5,3,119,1024706,1010150029,Midtown-Midtown South                                                      ,"200 W 44th St
(40.757405, -73.98619)"
Brasserie 1605,Full Serve,American,1605 Broadway,(212) 315-6195,www.cpmanhattantimessquare.com,1,10019,40.760537,-73.984644,5,3,125,1076195,1010200046,Midtown-Midtown South                                                      ,"1605 Broadway
(40.760537, -73.984644)"
La Masseria,Full Serve,Italian,235 W 48th St,(212) 582-2111,http://www.lamasserianyc.com/,1,10036,40.760476,-73.985666,5,3,125,1076194,1010200005,Midtown-Midtown South                                                      ,"235 W 48th St
(40.760476, -73.985666)"
Teriyaki Boy (month to month),Quick Serve,Japanese,732 Seventh Ave,(212) 265-8181,,1,10019,40.760177,-73.983944,5,4,125,1024779,1010200038,Midtown-Midtown South                                                      ,"732 Seventh Ave
(40.760177, -73.983944)"
Hourglass Tavern,Full Serve,,373 W 46th St,(212) 265-2060,http://www.hourglasstavern.com,1,10036,40.760598,-73.989803,4,3,127,1025077,1010370101,Clinton                                                                    ,"373 W 46th St
(40.760598, -73.989803)"
Mama Sbarro's,Quick Serve,Pizza,1606 Broadway,(212) 768-4194,www.sbarro.com,1,10019,40.760556,-73.984615,5,4,125,1024779,1010200038,Midtown-Midtown South                                                      ,"1606 Broadway
(40.760556, -73.984615)"
Yoshinoya Beef Bowl Restaurant,Full Serve,Japanese,255 W 42nd St,(212) 703-9940,http://www.yoshinoyausa.com,1,10036,40.756892,-73.988958,5,3,119,1087142,1010140001,Midtown-Midtown South                                                      ,"255 W 42nd St
(40.756892, -73.988958)"
"Natsumi Restaurant, Bar & Lounge",Full Serve,Japanese,226 W 50th St,(212) 258-2988,www.natsumnyc.com,1,10019,40.761668,-73.984651,5,3,125,1024806,1010210052,Midtown-Midtown South                                                      ,"226 W 50th St
(40.761668, -73.984651)"
Brooklyn Diner,Full Serve,Diner,155 W 43rd St,(212) 265-5400,www.brooklyndiner.com,1,10036,40.756082,-73.984948,5,4,119,1022610,1009960001,Midtown-Midtown South                                                      ,"155 W 43rd St
(40.756082, -73.984948)"
Chevys Fresh Mex,Full Serve,Mexican,259 W 42nd St,(212) 302-4010,http://www.chevysny.com/EN/index.html,1,10036,40.756917,-73.989016,5,3,119,1087142,1010140001,Midtown-Midtown South                                                      ,"259 W 42nd St
(40.756917, -73.989016)"
Tasti D-Lite,Quick Serve,Dessert,1588 Broadway,(212) 977-4000,,1,10036,40.759873,-73.984915,5,4,125,1024757,1010197501,Midtown-Midtown South                                                      ,"1588 Broadway
(40.759873, -73.984915)"
Carve: Unique Sandwiches,Quick Serve,American,768 Eighth Ave,(212) 730-4949,http://www.carve.cc/,1,10036,40.760309,-73.987532,5,3,125,1024748,1010180061,Midtown-Midtown South                                                      ,"768 Eighth Ave
(40.760309, -73.987532)"
Starbucks (@ Marriott),Coffee,,1535 Broadway,(212) 398-1900,http://www.starbucks.com/store/14269/,1,10036,40.758267,-73.985468,5,3,119,1024727,1010170029,Midtown-Midtown South                                                      ,"1535 Broadway
(40.758267, -73.985468)"
Ray's Famous Pizza,Quick Serve,Pizza,736 Seventh Ave,(212) 956-7297,www.rayspizzany.com,1,10019,40.760273,-73.983875,5,4,125,1024777,1010200035,Midtown-Midtown South                                                      ,"736 Seventh Ave
(40.760273, -73.983875)"
Jamba Juice,Caf√© / Deli,,1700 17th Street,(212) 582-1915,www.jambajuice.com,1,,,,,,,,,,"1700 17th Street
(40.01635, -105.272599)"
vacant (8th Avenue Pavilion Flea Market),Consumables,Non-beverages,675 Eighth Ave,,,1,10036,40.757705,-73.98946,4,3,121,1083728,1010330036,Clinton                                                                    ,"675 Eighth Ave
(40.757705, -73.98946)"
Bond 45,Full Serve,Italian,154 West 45th St,(212) 869-4545,www.bond45.com,1,10036,40.757408,-73.98423,5,4,119,1022624,1009970001,Midtown-Midtown South                                                      ,"154 West 45th St
(40.757408, -73.98423)"
Pax World,Caf√© / Deli,,225 W 42nd St,(800) 767-1729,http://www.paxworld.com/,1,10036,40.756508,-73.988042,5,3,119,1024683,1010140017,Midtown-Midtown South                                                      ,"225 W 42nd St
(40.756508, -73.988042)"
705 8th Avenue (8th Avenue Food Court),Caf√© / Deli,,"705 Eighth Ave
Storefront",,,1,10036,40.758759,-73.988695,4,3,121,1024991,1010350029,Clinton                                                                    ,"705 Eighth Ave Storefront
(40.758759, -73.988695)"
Avenue Restaurant @ Sheraton Hilton Hotel,Full Serve,American,811 Seventh Ave,(212) 581-3300,,1,10019,40.762674,-73.982095,5,4,131,1023159,1010050001,Midtown-Midtown South                                                      ,"811 Seventh Ave
(40.762674, -73.982095)"
Azalea,Full Serve,Italian,224 W 51st St,(212) 262-0105,http://www.lunapienanyc.com/azalea_new/,1,10019,40.76228,-73.984164,5,3,131,1024812,1010220043,Midtown-Midtown South                                                      ,"224 W 51st St
(40.76228, -73.984164)"
Bella Vita,Full Serve,Italian,211 W 43rd St,(212) 730-1479,www.bellavitanyc.com,1,10036,40.756983,-73.987081,5,3,119,1024706,1010150029,Midtown-Midtown South                                                      ,"211 W 43rd St
(40.756983, -73.987081)"
Bistro Caterers,Catering,,155 W 51st St,,,1,10019,40.761346,-73.981901,5,4,131,1023157,1010040020,Midtown-Midtown South                                                      ,"155 W 51st St
(40.761346, -73.981901)"
CAF√â @ Times Square,Caf√© / Deli,,159 W 46th St,(212) 391-7351,,1,10036,40.758066,-73.983829,5,4,125,1022661,1009990003,Midtown-Midtown South                                                      ,"159 W 46th St
(40.758066, -73.983829)"
Chipotle Mexican grill,Quick Serve,Mexican,854 Eighth Ave,(212) 757-4312,www.chipotle.com,1,10019,40.763166,-73.985452,5,3,131,1081642,1010230002,Midtown-Midtown South                                                      ,"854 Eighth Ave
(40.763166, -73.985452)"
Famous Dave's B-B-Q,Full Serve,Barbecue,169 W 47th St,(212) 764-1899,http://www.famousdaves.com/,1,10036,40.758777,-73.983583,5,4,125,1083718,1010000001,Midtown-Midtown South                                                      ,"169 W 47th St
(40.758777, -73.983583)"
Famous Famiglia Pizza,Quick Serve,Pizza,686 Eighth Ave,(212) 382-3030 ,,1,10036,40.758163,-73.989099,5,3,119,1024703,1010150001,Midtown-Midtown South                                                      ,"686 Eighth Ave
(40.758163, -73.989099)"
Fu Ying,Quick Serve,Chinese,811 Eighth Ave,(212) 489-5008 ,,1,10019,40.761531,-73.986669,4,3,127,1025144,1010390032,Clinton                                                                    ,"811 Eighth Ave
(40.761531, -73.986669)"
Green Symphony,Full Serve,Organic,255 W 43rd St,(212) 391-4747 ,,1,10036,40.757359,-73.987973,5,3,119,1024703,1010150001,Midtown-Midtown South                                                      ,"255 W 43rd St
(40.757359, -73.987973)"
Haru,Full Serve,Japanese,205 W 43rd St,(212) 398-9810,,1,10036,40.75693,-73.986959,5,3,119,1024706,1010150029,Midtown-Midtown South                                                      ,"205 W 43rd St
(40.75693, -73.986959)"
Insieme @ The Michaelangelo,Full Serve,Italian,777 Seventh Ave,(212) 582-1310,www.restaurantinsieme.com,1,10019,40.761571,-73.9829,5,4,131,1022710,1010037501,Midtown-Midtown South                                                      ,"777 Seventh Ave
(40.761571, -73.9829)"
Starbucks,Coffee,,684 Eighth Ave,(212) 398-9702,,1,10036,40.758108,-73.989139,5,3,119,1024703,1010150001,Midtown-Midtown South                                                      ,"684 Eighth Ave
(40.758108, -73.989139)"
"Metromet, Inc.",Catering,,"224 West 49th Street
Suite 1619",,http://www.metromet.com/metromet/index.php,1,10019,40.761014,-73.985052,5,3,125,1024782,1010200051,Midtown-Midtown South                                                      ,"224 West 49th Street Suite 1619
(40.761014, -73.985052)"
Barbetta Restaurant,Full Serve,Italian,321 West 46th Street,(212) 246-9171,barbettarestaurant.com,1,10036,40.76015,-73.988749,4,3,127,1080891,1010370020,Clinton                                                                    ,"321 West 46th Street
(40.76015, -73.988749)"
Le Bernardin,Full Serve,French,155 West 51st.,2125541515,www.le-bernardin.com,1,,,,,,,,,,"155 West 51st.
(41.801892, -87.629667)"
